[
    {
        "id": "R4666255",
        "name": "Barguna",
        "nameLocal": "Barguna",
        "parentId": "R3921298",
        "displayName": "Barguna",
        "isSupportDgCod": null,
        "scope": "L3",
        "isLeafNode": false
    },
    {
        "id": "R80300482",
        "name": "Barishal - Agailjhara",
        "nameLocal": "Barishal - Agailjhara",
        "parentId": "R3921298",
        "displayName": "Barishal - Agailjhara",
        "isSupportDgCod": null,
        "scope": "L3",
        "isLeafNode": false
    },
    {
        "id": "R80300475",
        "name": "Barishal - Babuganj",
        "nameLocal": "Barishal - Babuganj",
        "parentId": "R3921298",
        "displayName": "Barishal - Babuganj",
        "isSupportDgCod": null,
        "scope": "L3",
        "isLeafNode": false
    },
    {
        "id": "R80300472",
        "name": "Barishal - Bakerganj",
        "nameLocal": "Barishal - Bakerganj",
        "parentId": "R3921298",
        "displayName": "Barishal - Bakerganj",
        "isSupportDgCod": null,
        "scope": "L3",
        "isLeafNode": false
    },
    {
        "id": "R80300480",
        "name": "Barishal - Gouranadi",
        "nameLocal": "Barishal - Gouranadi",
        "parentId": "R3921298",
        "displayName": "Barishal - Gouranadi",
        "isSupportDgCod": null,
        "scope": "L3",
        "isLeafNode": false
    },
    {
        "id": "R80300478",
        "name": "Barishal - Hizla",
        "nameLocal": "Barishal - Hizla",
        "parentId": "R3921298",
        "displayName": "Barishal - Hizla",
        "isSupportDgCod": null,
        "scope": "L3",
        "isLeafNode": false
    },
    {
        "id": "R80300476",
        "name": "Barishal - Mehendiganj",
        "nameLocal": "Barishal - Mehendiganj",
        "parentId": "R3921298",
        "displayName": "Barishal - Mehendiganj",
        "isSupportDgCod": null,
        "scope": "L3",
        "isLeafNode": false
    },
    {
        "id": "R80300481",
        "name": "Barishal - Muladi",
        "nameLocal": "Barishal - Muladi",
        "parentId": "R3921298",
        "displayName": "Barishal - Muladi",
        "isSupportDgCod": null,
        "scope": "L3",
        "isLeafNode": false
    },
    {
        "id": "R80300479",
        "name": "Barishal - Town",
        "nameLocal": "Barishal - Town",
        "parentId": "R3921298",
        "displayName": "Barishal - Town",
        "isSupportDgCod": null,
        "scope": "L3",
        "isLeafNode": false
    },
    {
        "id": "R80300477",
        "name": "Barishal - Uzirpur",
        "nameLocal": "Barishal - Uzirpur",
        "parentId": "R3921298",
        "displayName": "Barishal - Uzirpur",
        "isSupportDgCod": null,
        "scope": "L3",
        "isLeafNode": false
    },
    {
        "id": "R4666454",
        "name": "Bhola",
        "nameLocal": "Bhola",
        "parentId": "R3921298",
        "displayName": "Bhola",
        "isSupportDgCod": null,
        "scope": "L3",
        "isLeafNode": false
    },
    {
        "id": "R80300473",
        "name": "Jhalokati",
        "nameLocal": "Jhalokati",
        "parentId": "R3921298",
        "displayName": "Jhalokati",
        "isSupportDgCod": null,
        "scope": "L3",
        "isLeafNode": false
    },
    {
        "id": "R4666451",
        "name": "Patuakhali",
        "nameLocal": "Patuakhali",
        "parentId": "R3921298",
        "displayName": "Patuakhali",
        "isSupportDgCod": null,
        "scope": "L3",
        "isLeafNode": false
    },
    {
        "id": "R4631898",
        "name": "Pirojpur",
        "nameLocal": "Pirojpur",
        "parentId": "R3921298",
        "displayName": "Pirojpur",
        "isSupportDgCod": null,
        "scope": "L3",
        "isLeafNode": false
    },
    {
        "id": "R3824576",
        "name": "Bandarban",
        "nameLocal": "Bandarban",
        "parentId": "R3824588",
        "displayName": "Bandarban",
        "isSupportDgCod": null,
        "scope": "L3",
        "isLeafNode": false
    },
    {
        "id": "R80300532",
        "name": "Brahmanbaria",
        "nameLocal": "Brahmanbaria",
        "parentId": "R3824588",
        "displayName": "Brahmanbaria",
        "isSupportDgCod": null,
        "scope": "L3",
        "isLeafNode": false
    },
    {
        "id": "R80300494",
        "name": "Brahmanbaria - Kasba",
        "nameLocal": "Brahmanbaria - Kasba",
        "parentId": "R3824588",
        "displayName": "Brahmanbaria - Kasba",
        "isSupportDgCod": null,
        "scope": "L3",
        "isLeafNode": false
    },
    {
        "id": "R80300497",
        "name": "Brahmanbaria - Nabinagar",
        "nameLocal": "Brahmanbaria - Nabinagar",
        "parentId": "R3824588",
        "displayName": "Brahmanbaria - Nabinagar",
        "isSupportDgCod": null,
        "scope": "L3",
        "isLeafNode": false
    },
    {
        "id": "R80300552",
        "name": "Brahmanbaria - Sarail",
        "nameLocal": "Brahmanbaria - Sarail",
        "parentId": "R3824588",
        "displayName": "Brahmanbaria - Sarail",
        "isSupportDgCod": null,
        "scope": "L3",
        "isLeafNode": false
    },
    {
        "id": "R80300536",
        "name": "Chandpur - Faridganj",
        "nameLocal": "Chandpur - Faridganj",
        "parentId": "R3824588",
        "displayName": "Chandpur - Faridganj",
        "isSupportDgCod": null,
        "scope": "L3",
        "isLeafNode": false
    },
    {
        "id": "R80300523",
        "name": "Chandpur - Hajiganj",
        "nameLocal": "Chandpur - Hajiganj",
        "parentId": "R3824588",
        "displayName": "Chandpur - Hajiganj",
        "isSupportDgCod": null,
        "scope": "L3",
        "isLeafNode": false
    },
    {
        "id": "R80300545",
        "name": "Chandpur - Hayemchar",
        "nameLocal": "Chandpur - Hayemchar",
        "parentId": "R3824588",
        "displayName": "Chandpur - Hayemchar",
        "isSupportDgCod": null,
        "scope": "L3",
        "isLeafNode": false
    },
    {
        "id": "R80300501",
        "name": "Chandpur - Kachua",
        "nameLocal": "Chandpur - Kachua",
        "parentId": "R3824588",
        "displayName": "Chandpur - Kachua",
        "isSupportDgCod": null,
        "scope": "L3",
        "isLeafNode": false
    },
    {
        "id": "R80300492",
        "name": "Chandpur - Matlab",
        "nameLocal": "Chandpur - Matlab",
        "parentId": "R3824588",
        "displayName": "Chandpur - Matlab",
        "isSupportDgCod": null,
        "scope": "L3",
        "isLeafNode": false
    },
    {
        "id": "R3824841",
        "name": "Chandpur Sadar",
        "nameLocal": "Chandpur Sadar",
        "parentId": "R3824588",
        "displayName": "Chandpur Sadar",
        "isSupportDgCod": null,
        "scope": "L3",
        "isLeafNode": false
    },
    {
        "id": "R80300544",
        "name": "Chandpur - Shahrasti",
        "nameLocal": "Chandpur - Shahrasti",
        "parentId": "R3824588",
        "displayName": "Chandpur - Shahrasti",
        "isSupportDgCod": null,
        "scope": "L3",
        "isLeafNode": false
    },
    {
        "id": "R80300520",
        "name": "Chattagram - Boalkhali",
        "nameLocal": "Chattagram - Boalkhali",
        "parentId": "R3824588",
        "displayName": "Chattagram - Boalkhali",
        "isSupportDgCod": null,
        "scope": "L3",
        "isLeafNode": false
    },
    {
        "id": "R80300535",
        "name": "Chattogram - Anowara",
        "nameLocal": "Chattogram - Anowara",
        "parentId": "R3824588",
        "displayName": "Chattogram - Anowara",
        "isSupportDgCod": null,
        "scope": "L3",
        "isLeafNode": false
    },
    {
        "id": "R80300542",
        "name": "Chattogram - Banshkhali",
        "nameLocal": "Chattogram - Banshkhali",
        "parentId": "R3824588",
        "displayName": "Chattogram - Banshkhali",
        "isSupportDgCod": null,
        "scope": "L3",
        "isLeafNode": false
    },
    {
        "id": "R80300530",
        "name": "Chattogram - Chandanaish",
        "nameLocal": "Chattogram - Chandanaish",
        "parentId": "R3824588",
        "displayName": "Chattogram - Chandanaish",
        "isSupportDgCod": null,
        "scope": "L3",
        "isLeafNode": false
    },
    {
        "id": "R80300540",
        "name": "Chattogram - Fatikchhari",
        "nameLocal": "Chattogram - Fatikchhari",
        "parentId": "R3824588",
        "displayName": "Chattogram - Fatikchhari",
        "isSupportDgCod": null,
        "scope": "L3",
        "isLeafNode": false
    },
    {
        "id": "R80300505",
        "name": "Chattogram - Hathazari",
        "nameLocal": "Chattogram - Hathazari",
        "parentId": "R3824588",
        "displayName": "Chattogram - Hathazari",
        "isSupportDgCod": null,
        "scope": "L3",
        "isLeafNode": false
    },
    {
        "id": "R80300518",
        "name": "Chattogram - Lohagara",
        "nameLocal": "Chattogram - Lohagara",
        "parentId": "R3824588",
        "displayName": "Chattogram - Lohagara",
        "isSupportDgCod": null,
        "scope": "L3",
        "isLeafNode": false
    },
    {
        "id": "R80300550",
        "name": "Chattogram - Mirsharai",
        "nameLocal": "Chattogram - Mirsharai",
        "parentId": "R3824588",
        "displayName": "Chattogram - Mirsharai",
        "isSupportDgCod": null,
        "scope": "L3",
        "isLeafNode": false
    },
    {
        "id": "R80300534",
        "name": "Chattogram - Patiya",
        "nameLocal": "Chattogram - Patiya",
        "parentId": "R3824588",
        "displayName": "Chattogram - Patiya",
        "isSupportDgCod": null,
        "scope": "L3",
        "isLeafNode": false
    },
    {
        "id": "R80300526",
        "name": "Chattogram - Rangunia",
        "nameLocal": "Chattogram - Rangunia",
        "parentId": "R3824588",
        "displayName": "Chattogram - Rangunia",
        "isSupportDgCod": null,
        "scope": "L3",
        "isLeafNode": false
    },
    {
        "id": "R80300546",
        "name": "Chattogram - Raozan",
        "nameLocal": "Chattogram - Raozan",
        "parentId": "R3824588",
        "displayName": "Chattogram - Raozan",
        "isSupportDgCod": null,
        "scope": "L3",
        "isLeafNode": false
    },
    {
        "id": "R80306204",
        "name": "Chattogram Sadar",
        "nameLocal": "Chattogram Sadar",
        "parentId": "R3824588",
        "displayName": "Chattogram Sadar",
        "isSupportDgCod": null,
        "scope": "L3",
        "isLeafNode": false
    },
    {
        "id": "R80300486",
        "name": "Chattogram - Sandwip",
        "nameLocal": "Chattogram - Sandwip",
        "parentId": "R3824588",
        "displayName": "Chattogram - Sandwip",
        "isSupportDgCod": null,
        "scope": "L3",
        "isLeafNode": false
    },
    {
        "id": "R80300517",
        "name": "Chattogram - Satkania",
        "nameLocal": "Chattogram - Satkania",
        "parentId": "R3824588",
        "displayName": "Chattogram - Satkania",
        "isSupportDgCod": null,
        "scope": "L3",
        "isLeafNode": false
    },
    {
        "id": "R80300508",
        "name": "Chattogram - Sitakunda",
        "nameLocal": "Chattogram - Sitakunda",
        "parentId": "R3824588",
        "displayName": "Chattogram - Sitakunda",
        "isSupportDgCod": null,
        "scope": "L3",
        "isLeafNode": false
    },
    {
        "id": "R80300490",
        "name": "Comilla - Barura",
        "nameLocal": "Comilla - Barura",
        "parentId": "R3824588",
        "displayName": "Comilla - Barura",
        "isSupportDgCod": null,
        "scope": "L3",
        "isLeafNode": false
    },
    {
        "id": "R80300512",
        "name": "Comilla - Brahmanpara",
        "nameLocal": "Comilla - Brahmanpara",
        "parentId": "R3824588",
        "displayName": "Comilla - Brahmanpara",
        "isSupportDgCod": null,
        "scope": "L3",
        "isLeafNode": false
    },
    {
        "id": "R80300515",
        "name": "Comilla - Burichang",
        "nameLocal": "Comilla - Burichang",
        "parentId": "R3824588",
        "displayName": "Comilla - Burichang",
        "isSupportDgCod": null,
        "scope": "L3",
        "isLeafNode": false
    },
    {
        "id": "R80300500",
        "name": "Comilla - Chandina",
        "nameLocal": "Comilla - Chandina",
        "parentId": "R3824588",
        "displayName": "Comilla - Chandina",
        "isSupportDgCod": null,
        "scope": "L3",
        "isLeafNode": false
    },
    {
        "id": "R80300483",
        "name": "Comilla - Choddagram",
        "nameLocal": "Comilla - Choddagram",
        "parentId": "R3824588",
        "displayName": "Comilla - Choddagram",
        "isSupportDgCod": null,
        "scope": "L3",
        "isLeafNode": false
    },
    {
        "id": "R80300539",
        "name": "Comilla - Daudkandi",
        "nameLocal": "Comilla - Daudkandi",
        "parentId": "R3824588",
        "displayName": "Comilla - Daudkandi",
        "isSupportDgCod": null,
        "scope": "L3",
        "isLeafNode": false
    },
    {
        "id": "R80300509",
        "name": "Comilla - Davidhar",
        "nameLocal": "Comilla - Davidhar",
        "parentId": "R3824588",
        "displayName": "Comilla - Davidhar",
        "isSupportDgCod": null,
        "scope": "L3",
        "isLeafNode": false
    },
    {
        "id": "R80300503",
        "name": "Comilla - Homna",
        "nameLocal": "Comilla - Homna",
        "parentId": "R3824588",
        "displayName": "Comilla - Homna",
        "isSupportDgCod": null,
        "scope": "L3",
        "isLeafNode": false
    },
    {
        "id": "R80300516",
        "name": "Comilla Laksam",
        "nameLocal": "Comilla Laksam",
        "parentId": "R3824588",
        "displayName": "Comilla Laksam",
        "isSupportDgCod": null,
        "scope": "L3",
        "isLeafNode": false
    },
    {
        "id": "RBD1250",
        "name": "Comilla - Lalmai",
        "nameLocal": "Comilla - Lalmai",
        "parentId": "R3824588",
        "displayName": "Comilla - Lalmai",
        "isSupportDgCod": null,
        "scope": "L3",
        "isLeafNode": false
    },
    {
        "id": "R80300507",
        "name": "Comilla Langalkot",
        "nameLocal": "Comilla Langalkot",
        "parentId": "R3824588",
        "displayName": "Comilla Langalkot",
        "isSupportDgCod": null,
        "scope": "L3",
        "isLeafNode": false
    },
    {
        "id": "RBD1248",
        "name": "Comilla - Meghna",
        "nameLocal": "Comilla - Meghna",
        "parentId": "R3824588",
        "displayName": "Comilla - Meghna",
        "isSupportDgCod": null,
        "scope": "L3",
        "isLeafNode": false
    },
    {
        "id": "RBD1247",
        "name": "Comilla - Monohorganj",
        "nameLocal": "Comilla - Monohorganj",
        "parentId": "R3824588",
        "displayName": "Comilla - Monohorganj",
        "isSupportDgCod": null,
        "scope": "L3",
        "isLeafNode": false
    },
    {
        "id": "R80300527",
        "name": "Comilla - Muradnagar",
        "nameLocal": "Comilla - Muradnagar",
        "parentId": "R3824588",
        "displayName": "Comilla - Muradnagar",
        "isSupportDgCod": null,
        "scope": "L3",
        "isLeafNode": false
    },
    {
        "id": "R80300524",
        "name": "Comilla Sadar",
        "nameLocal": "Comilla Sadar",
        "parentId": "R3824588",
        "displayName": "Comilla Sadar",
        "isSupportDgCod": null,
        "scope": "L3",
        "isLeafNode": false
    },
    {
        "id": "R80300487",
        "name": "Cox's Bazar - Chakaria",
        "nameLocal": "Cox's Bazar - Chakaria",
        "parentId": "R3824588",
        "displayName": "Cox's Bazar - Chakaria",
        "isSupportDgCod": null,
        "scope": "L3",
        "isLeafNode": false
    },
    {
        "id": "RBD1249",
        "name": "Cox's Bazar - Eidgaon",
        "nameLocal": "Cox's Bazar - Eidgaon",
        "parentId": "R3824588",
        "displayName": "Cox's Bazar - Eidgaon",
        "isSupportDgCod": null,
        "scope": "L3",
        "isLeafNode": false
    },
    {
        "id": "R80300528",
        "name": "Cox's Bazar - Kutubdia",
        "nameLocal": "Cox's Bazar - Kutubdia",
        "parentId": "R3824588",
        "displayName": "Cox's Bazar - Kutubdia",
        "isSupportDgCod": null,
        "scope": "L3",
        "isLeafNode": false
    },
    {
        "id": "R80300495",
        "name": "Cox's Bazar - Moheskhali",
        "nameLocal": "Cox's Bazar - Moheskhali",
        "parentId": "R3824588",
        "displayName": "Cox's Bazar - Moheskhali",
        "isSupportDgCod": null,
        "scope": "L3",
        "isLeafNode": false
    },
    {
        "id": "R80300484",
        "name": "Cox's Bazar - Ramu",
        "nameLocal": "Cox's Bazar - Ramu",
        "parentId": "R3824588",
        "displayName": "Cox's Bazar - Ramu",
        "isSupportDgCod": null,
        "scope": "L3",
        "isLeafNode": false
    },
    {
        "id": "R3824578",
        "name": "Cox's Bazar Sadar",
        "nameLocal": "Cox's Bazar Sadar",
        "parentId": "R3824588",
        "displayName": "Cox's Bazar Sadar",
        "isSupportDgCod": null,
        "scope": "L3",
        "isLeafNode": false
    },
    {
        "id": "R80300489",
        "name": "Cox's Bazar - Teknaf",
        "nameLocal": "Cox's Bazar - Teknaf",
        "parentId": "R3824588",
        "displayName": "Cox's Bazar - Teknaf",
        "isSupportDgCod": null,
        "scope": "L3",
        "isLeafNode": false
    },
    {
        "id": "R80300543",
        "name": "Cox's Bazar - Ukhia",
        "nameLocal": "Cox's Bazar - Ukhia",
        "parentId": "R3824588",
        "displayName": "Cox's Bazar - Ukhia",
        "isSupportDgCod": null,
        "scope": "L3",
        "isLeafNode": false
    },
    {
        "id": "R80300549",
        "name": "Feni - Chhagalnaia",
        "nameLocal": "Feni - Chhagalnaia",
        "parentId": "R3824588",
        "displayName": "Feni - Chhagalnaia",
        "isSupportDgCod": null,
        "scope": "L3",
        "isLeafNode": false
    },
    {
        "id": "R80300533",
        "name": "Feni - Daganbhuiyan",
        "nameLocal": "Feni - Daganbhuiyan",
        "parentId": "R3824588",
        "displayName": "Feni - Daganbhuiyan",
        "isSupportDgCod": null,
        "scope": "L3",
        "isLeafNode": false
    },
    {
        "id": "R80300502",
        "name": "Feni - Pashurampur",
        "nameLocal": "Feni - Pashurampur",
        "parentId": "R3824588",
        "displayName": "Feni - Pashurampur",
        "isSupportDgCod": null,
        "scope": "L3",
        "isLeafNode": false
    },
    {
        "id": "R3824791",
        "name": "Feni - Sadar",
        "nameLocal": "Feni - Sadar",
        "parentId": "R3824588",
        "displayName": "Feni - Sadar",
        "isSupportDgCod": null,
        "scope": "L3",
        "isLeafNode": false
    },
    {
        "id": "R80300531",
        "name": "Feni - Sonagazi",
        "nameLocal": "Feni - Sonagazi",
        "parentId": "R3824588",
        "displayName": "Feni - Sonagazi",
        "isSupportDgCod": null,
        "scope": "L3",
        "isLeafNode": false
    },
    {
        "id": "R80300510",
        "name": "Hatiya",
        "nameLocal": "Hatiya",
        "parentId": "R3824588",
        "displayName": "Hatiya",
        "isSupportDgCod": null,
        "scope": "L3",
        "isLeafNode": false
    },
    {
        "id": "R3824617",
        "name": "Khagrachari",
        "nameLocal": "Khagrachari",
        "parentId": "R3824588",
        "displayName": "Khagrachari",
        "isSupportDgCod": null,
        "scope": "L3",
        "isLeafNode": false
    },
    {
        "id": "R80300547",
        "name": "Khagrachari - Dighinala",
        "nameLocal": "Khagrachari - Dighinala",
        "parentId": "R3824588",
        "displayName": "Khagrachari - Dighinala",
        "isSupportDgCod": null,
        "scope": "L3",
        "isLeafNode": false
    },
    {
        "id": "R80300529",
        "name": "Khagrachari - Laxmichhari",
        "nameLocal": "Khagrachari - Laxmichhari",
        "parentId": "R3824588",
        "displayName": "Khagrachari - Laxmichhari",
        "isSupportDgCod": null,
        "scope": "L3",
        "isLeafNode": false
    },
    {
        "id": "R80300537",
        "name": "Khagrachari - Manikchhari",
        "nameLocal": "Khagrachari - Manikchhari",
        "parentId": "R3824588",
        "displayName": "Khagrachari - Manikchhari",
        "isSupportDgCod": null,
        "scope": "L3",
        "isLeafNode": false
    },
    {
        "id": "R80300548",
        "name": "Khagrachari - Matiranga",
        "nameLocal": "Khagrachari - Matiranga",
        "parentId": "R3824588",
        "displayName": "Khagrachari - Matiranga",
        "isSupportDgCod": null,
        "scope": "L3",
        "isLeafNode": false
    },
    {
        "id": "R80300498",
        "name": "Khagrachari - Panchhari",
        "nameLocal": "Khagrachari - Panchhari",
        "parentId": "R3824588",
        "displayName": "Khagrachari - Panchhari",
        "isSupportDgCod": null,
        "scope": "L3",
        "isLeafNode": false
    },
    {
        "id": "R80300538",
        "name": "Khagrachari - Ramghar",
        "nameLocal": "Khagrachari - Ramghar",
        "parentId": "R3824588",
        "displayName": "Khagrachari - Ramghar",
        "isSupportDgCod": null,
        "scope": "L3",
        "isLeafNode": false
    },
    {
        "id": "R80300551",
        "name": "Lakshmipur",
        "nameLocal": "Lakshmipur",
        "parentId": "R3824588",
        "displayName": "Lakshmipur",
        "isSupportDgCod": null,
        "scope": "L3",
        "isLeafNode": false
    },
    {
        "id": "RBD1477",
        "name": "Lakshmipur - Raipur",
        "nameLocal": "Lakshmipur - Raipur",
        "parentId": "R3824588",
        "displayName": "Lakshmipur - Raipur",
        "isSupportDgCod": null,
        "scope": "L3",
        "isLeafNode": false
    },
    {
        "id": "R80300541",
        "name": "Lakshmipur - Ramganj",
        "nameLocal": "Lakshmipur - Ramganj",
        "parentId": "R3824588",
        "displayName": "Lakshmipur - Ramganj",
        "isSupportDgCod": null,
        "scope": "L3",
        "isLeafNode": false
    },
    {
        "id": "R80300506",
        "name": "Lakshmipur - Ramgati",
        "nameLocal": "Lakshmipur - Ramgati",
        "parentId": "R3824588",
        "displayName": "Lakshmipur - Ramgati",
        "isSupportDgCod": null,
        "scope": "L3",
        "isLeafNode": false
    },
    {
        "id": "R80300519",
        "name": "Lakshmipur - Raypur",
        "nameLocal": "Lakshmipur - Raypur",
        "parentId": "R3824588",
        "displayName": "Lakshmipur - Raypur",
        "isSupportDgCod": null,
        "scope": "L3",
        "isLeafNode": false
    },
    {
        "id": "R3824792",
        "name": "Noakhali",
        "nameLocal": "Noakhali",
        "parentId": "R3824588",
        "displayName": "Noakhali",
        "isSupportDgCod": null,
        "scope": "L3",
        "isLeafNode": false
    },
    {
        "id": "R80300511",
        "name": "Noakhali - Basurhat",
        "nameLocal": "Noakhali - Basurhat",
        "parentId": "R3824588",
        "displayName": "Noakhali - Basurhat",
        "isSupportDgCod": null,
        "scope": "L3",
        "isLeafNode": false
    },
    {
        "id": "R80300499",
        "name": "Noakhali - Begumganj",
        "nameLocal": "Noakhali - Begumganj",
        "parentId": "R3824588",
        "displayName": "Noakhali - Begumganj",
        "isSupportDgCod": null,
        "scope": "L3",
        "isLeafNode": false
    },
    {
        "id": "R80300521",
        "name": "Noakhali - Chatkhil",
        "nameLocal": "Noakhali - Chatkhil",
        "parentId": "R3824588",
        "displayName": "Noakhali - Chatkhil",
        "isSupportDgCod": null,
        "scope": "L3",
        "isLeafNode": false
    },
    {
        "id": "R80300488",
        "name": "Noakhali - Senbag",
        "nameLocal": "Noakhali - Senbag",
        "parentId": "R3824588",
        "displayName": "Noakhali - Senbag",
        "isSupportDgCod": null,
        "scope": "L3",
        "isLeafNode": false
    },
    {
        "id": "R80300522",
        "name": "Rangamati Barkal",
        "nameLocal": "Rangamati Barkal",
        "parentId": "R3824588",
        "displayName": "Rangamati Barkal",
        "isSupportDgCod": null,
        "scope": "L3",
        "isLeafNode": false
    },
    {
        "id": "R80300493",
        "name": "Rangamati - Bilaichhari",
        "nameLocal": "Rangamati - Bilaichhari",
        "parentId": "R3824588",
        "displayName": "Rangamati - Bilaichhari",
        "isSupportDgCod": null,
        "scope": "L3",
        "isLeafNode": false
    },
    {
        "id": "R80300491",
        "name": "Rangamati - Juraichhari",
        "nameLocal": "Rangamati - Juraichhari",
        "parentId": "R3824588",
        "displayName": "Rangamati - Juraichhari",
        "isSupportDgCod": null,
        "scope": "L3",
        "isLeafNode": false
    },
    {
        "id": "R80300513",
        "name": "Rangamati - Kaptai",
        "nameLocal": "Rangamati - Kaptai",
        "parentId": "R3824588",
        "displayName": "Rangamati - Kaptai",
        "isSupportDgCod": null,
        "scope": "L3",
        "isLeafNode": false
    },
    {
        "id": "R80300496",
        "name": "Rangamati - Kawkhali",
        "nameLocal": "Rangamati - Kawkhali",
        "parentId": "R3824588",
        "displayName": "Rangamati - Kawkhali",
        "isSupportDgCod": null,
        "scope": "L3",
        "isLeafNode": false
    },
    {
        "id": "R80300485",
        "name": "Rangamati - Langadu",
        "nameLocal": "Rangamati - Langadu",
        "parentId": "R3824588",
        "displayName": "Rangamati - Langadu",
        "isSupportDgCod": null,
        "scope": "L3",
        "isLeafNode": false
    },
    {
        "id": "R80300504",
        "name": "Rangamati Marishya",
        "nameLocal": "Rangamati Marishya",
        "parentId": "R3824588",
        "displayName": "Rangamati Marishya",
        "isSupportDgCod": null,
        "scope": "L3",
        "isLeafNode": false
    },
    {
        "id": "R80300525",
        "name": "Rangamati - Naniachhar",
        "nameLocal": "Rangamati - Naniachhar",
        "parentId": "R3824588",
        "displayName": "Rangamati - Naniachhar",
        "isSupportDgCod": null,
        "scope": "L3",
        "isLeafNode": false
    },
    {
        "id": "R80300514",
        "name": "Rangamati - Rajsthali",
        "nameLocal": "Rangamati - Rajsthali",
        "parentId": "R3824588",
        "displayName": "Rangamati - Rajsthali",
        "isSupportDgCod": null,
        "scope": "L3",
        "isLeafNode": false
    },
    {
        "id": "R3824602",
        "name": "Rangamati Town",
        "nameLocal": "Rangamati Town",
        "parentId": "R3824588",
        "displayName": "Rangamati Town",
        "isSupportDgCod": null,
        "scope": "L3",
        "isLeafNode": false
    },
    {
        "id": "R80300576",
        "name": "Dhaka - North",
        "nameLocal": "Dhaka - North",
        "parentId": "R3921322",
        "displayName": "Dhaka - North",
        "isSupportDgCod": null,
        "scope": "L3",
        "isLeafNode": false
    },
    {
        "id": "R80300574",
        "name": "Dhaka - South",
        "nameLocal": "Dhaka - South",
        "parentId": "R3921322",
        "displayName": "Dhaka - South",
        "isSupportDgCod": null,
        "scope": "L3",
        "isLeafNode": false
    },
    {
        "id": "R80300575",
        "name": "Faridpur",
        "nameLocal": "Faridpur",
        "parentId": "R3921322",
        "displayName": "Faridpur",
        "isSupportDgCod": null,
        "scope": "L3",
        "isLeafNode": false
    },
    {
        "id": "R80300579",
        "name": "Gazipur",
        "nameLocal": "Gazipur",
        "parentId": "R3921322",
        "displayName": "Gazipur",
        "isSupportDgCod": null,
        "scope": "L3",
        "isLeafNode": false
    },
    {
        "id": "R80300558",
        "name": "Gopalganj",
        "nameLocal": "Gopalganj",
        "parentId": "R3921322",
        "displayName": "Gopalganj",
        "isSupportDgCod": null,
        "scope": "L3",
        "isLeafNode": false
    },
    {
        "id": "R4734867",
        "name": "Keraniganj - Dhaka",
        "nameLocal": "Keraniganj - Dhaka",
        "parentId": "R3921322",
        "displayName": "Keraniganj - Dhaka",
        "isSupportDgCod": null,
        "scope": "L3",
        "isLeafNode": false
    },
    {
        "id": "R80300573",
        "name": "Kishoreganj",
        "nameLocal": "Kishoreganj",
        "parentId": "R3921322",
        "displayName": "Kishoreganj",
        "isSupportDgCod": null,
        "scope": "L3",
        "isLeafNode": false
    },
    {
        "id": "R80300566",
        "name": "Madaripur",
        "nameLocal": "Madaripur",
        "parentId": "R3921322",
        "displayName": "Madaripur",
        "isSupportDgCod": null,
        "scope": "L3",
        "isLeafNode": false
    },
    {
        "id": "R80300564",
        "name": "Manikganj - Shibloya",
        "nameLocal": "Manikganj - Shibloya",
        "parentId": "R3921322",
        "displayName": "Manikganj - Shibloya",
        "isSupportDgCod": null,
        "scope": "L3",
        "isLeafNode": false
    },
    {
        "id": "R80300582",
        "name": "Manikganj - Singair",
        "nameLocal": "Manikganj - Singair",
        "parentId": "R3921322",
        "displayName": "Manikganj - Singair",
        "isSupportDgCod": null,
        "scope": "L3",
        "isLeafNode": false
    },
    {
        "id": "R80300584",
        "name": "Manikganj - Town",
        "nameLocal": "Manikganj - Town",
        "parentId": "R3921322",
        "displayName": "Manikganj - Town",
        "isSupportDgCod": null,
        "scope": "L3",
        "isLeafNode": false
    },
    {
        "id": "R80300572",
        "name": "Munshiganj - Gajaria",
        "nameLocal": "Munshiganj - Gajaria",
        "parentId": "R3921322",
        "displayName": "Munshiganj - Gajaria",
        "isSupportDgCod": null,
        "scope": "L3",
        "isLeafNode": false
    },
    {
        "id": "R80300583",
        "name": "Munshiganj - Lohajong",
        "nameLocal": "Munshiganj - Lohajong",
        "parentId": "R3921322",
        "displayName": "Munshiganj - Lohajong",
        "isSupportDgCod": null,
        "scope": "L3",
        "isLeafNode": false
    },
    {
        "id": "R80300585",
        "name": "Munshiganj - Sirajdikhan",
        "nameLocal": "Munshiganj - Sirajdikhan",
        "parentId": "R3921322",
        "displayName": "Munshiganj - Sirajdikhan",
        "isSupportDgCod": null,
        "scope": "L3",
        "isLeafNode": false
    },
    {
        "id": "R80300557",
        "name": "Munshiganj - Town",
        "nameLocal": "Munshiganj - Town",
        "parentId": "R3921322",
        "displayName": "Munshiganj - Town",
        "isSupportDgCod": null,
        "scope": "L3",
        "isLeafNode": false
    },
    {
        "id": "R80300559",
        "name": "Narayanganj",
        "nameLocal": "Narayanganj",
        "parentId": "R3921322",
        "displayName": "Narayanganj",
        "isSupportDgCod": null,
        "scope": "L3",
        "isLeafNode": false
    },
    {
        "id": "R80300553",
        "name": "Narsingdi",
        "nameLocal": "Narsingdi",
        "parentId": "R3921322",
        "displayName": "Narsingdi",
        "isSupportDgCod": null,
        "scope": "L3",
        "isLeafNode": false
    },
    {
        "id": "R80300561",
        "name": "Nawabganj",
        "nameLocal": "Nawabganj",
        "parentId": "R3921322",
        "displayName": "Nawabganj",
        "isSupportDgCod": null,
        "scope": "L3",
        "isLeafNode": false
    },
    {
        "id": "R80300560",
        "name": "Rajbari - Baliakandi",
        "nameLocal": "Rajbari - Baliakandi",
        "parentId": "R3921322",
        "displayName": "Rajbari - Baliakandi",
        "isSupportDgCod": null,
        "scope": "L3",
        "isLeafNode": false
    },
    {
        "id": "R80300562",
        "name": "Rajbari - Pangsha",
        "nameLocal": "Rajbari - Pangsha",
        "parentId": "R3921322",
        "displayName": "Rajbari - Pangsha",
        "isSupportDgCod": null,
        "scope": "L3",
        "isLeafNode": false
    },
    {
        "id": "R80300571",
        "name": "Rajbari - Town",
        "nameLocal": "Rajbari - Town",
        "parentId": "R3921322",
        "displayName": "Rajbari - Town",
        "isSupportDgCod": null,
        "scope": "L3",
        "isLeafNode": false
    },
    {
        "id": "R4730836",
        "name": "Savar",
        "nameLocal": "Savar",
        "parentId": "R3921322",
        "displayName": "Savar",
        "isSupportDgCod": null,
        "scope": "L3",
        "isLeafNode": false
    },
    {
        "id": "R80300578",
        "name": "Shariatpur - Naria",
        "nameLocal": "Shariatpur - Naria",
        "parentId": "R3921322",
        "displayName": "Shariatpur - Naria",
        "isSupportDgCod": null,
        "scope": "L3",
        "isLeafNode": false
    },
    {
        "id": "R80300580",
        "name": "Shariatpur - Town",
        "nameLocal": "Shariatpur - Town",
        "parentId": "R3921322",
        "displayName": "Shariatpur - Town",
        "isSupportDgCod": null,
        "scope": "L3",
        "isLeafNode": false
    },
    {
        "id": "R80300567",
        "name": "Tangail - Basail",
        "nameLocal": "Tangail - Basail",
        "parentId": "R3921322",
        "displayName": "Tangail - Basail",
        "isSupportDgCod": null,
        "scope": "L3",
        "isLeafNode": false
    },
    {
        "id": "R80300581",
        "name": "Tangail - Bhuapur",
        "nameLocal": "Tangail - Bhuapur",
        "parentId": "R3921322",
        "displayName": "Tangail - Bhuapur",
        "isSupportDgCod": null,
        "scope": "L3",
        "isLeafNode": false
    },
    {
        "id": "R80300563",
        "name": "Tangail - Deldur",
        "nameLocal": "Tangail - Deldur",
        "parentId": "R3921322",
        "displayName": "Tangail - Deldur",
        "isSupportDgCod": null,
        "scope": "L3",
        "isLeafNode": false
    },
    {
        "id": "RBD1478",
        "name": "Tangail - Dhanbari",
        "nameLocal": "Tangail - Dhanbari",
        "parentId": "R3921322",
        "displayName": "Tangail - Dhanbari",
        "isSupportDgCod": null,
        "scope": "L3",
        "isLeafNode": false
    },
    {
        "id": "R80300568",
        "name": "Tangail - Ghatail",
        "nameLocal": "Tangail - Ghatail",
        "parentId": "R3921322",
        "displayName": "Tangail - Ghatail",
        "isSupportDgCod": null,
        "scope": "L3",
        "isLeafNode": false
    },
    {
        "id": "R80300577",
        "name": "Tangail - Gopalpur",
        "nameLocal": "Tangail - Gopalpur",
        "parentId": "R3921322",
        "displayName": "Tangail - Gopalpur",
        "isSupportDgCod": null,
        "scope": "L3",
        "isLeafNode": false
    },
    {
        "id": "R80300569",
        "name": "Tangail - Kalihati",
        "nameLocal": "Tangail - Kalihati",
        "parentId": "R3921322",
        "displayName": "Tangail - Kalihati",
        "isSupportDgCod": null,
        "scope": "L3",
        "isLeafNode": false
    },
    {
        "id": "R80300556",
        "name": "Tangail - Madhupur",
        "nameLocal": "Tangail - Madhupur",
        "parentId": "R3921322",
        "displayName": "Tangail - Madhupur",
        "isSupportDgCod": null,
        "scope": "L3",
        "isLeafNode": false
    },
    {
        "id": "R80300565",
        "name": "Tangail - Mirzapur",
        "nameLocal": "Tangail - Mirzapur",
        "parentId": "R3921322",
        "displayName": "Tangail - Mirzapur",
        "isSupportDgCod": null,
        "scope": "L3",
        "isLeafNode": false
    },
    {
        "id": "R80300586",
        "name": "Tangail - Nagarpur",
        "nameLocal": "Tangail - Nagarpur",
        "parentId": "R3921322",
        "displayName": "Tangail - Nagarpur",
        "isSupportDgCod": null,
        "scope": "L3",
        "isLeafNode": false
    },
    {
        "id": "R80300554",
        "name": "Tangail - Sakhipur",
        "nameLocal": "Tangail - Sakhipur",
        "parentId": "R3921322",
        "displayName": "Tangail - Sakhipur",
        "isSupportDgCod": null,
        "scope": "L3",
        "isLeafNode": false
    },
    {
        "id": "R80300555",
        "name": "Tangail - Town",
        "nameLocal": "Tangail - Town",
        "parentId": "R3921322",
        "displayName": "Tangail - Town",
        "isSupportDgCod": null,
        "scope": "L3",
        "isLeafNode": false
    },
    {
        "id": "R80314542",
        "name": "Tongi",
        "nameLocal": "Tongi",
        "parentId": "R3921322",
        "displayName": "Tongi",
        "isSupportDgCod": null,
        "scope": "L3",
        "isLeafNode": false
    },
    {
        "id": "R80300603",
        "name": "Bagerhat",
        "nameLocal": "Bagerhat",
        "parentId": "R3825003",
        "displayName": "Bagerhat",
        "isSupportDgCod": null,
        "scope": "L3",
        "isLeafNode": false
    },
    {
        "id": "R80300604",
        "name": "Chuadanga",
        "nameLocal": "Chuadanga",
        "parentId": "R3825003",
        "displayName": "Chuadanga",
        "isSupportDgCod": null,
        "scope": "L3",
        "isLeafNode": false
    },
    {
        "id": "R80300588",
        "name": "Jashore",
        "nameLocal": "Jashore",
        "parentId": "R3825003",
        "displayName": "Jashore",
        "isSupportDgCod": null,
        "scope": "L3",
        "isLeafNode": false
    },
    {
        "id": "R80300598",
        "name": "Jhenaidah",
        "nameLocal": "Jhenaidah",
        "parentId": "R3825003",
        "displayName": "Jhenaidah",
        "isSupportDgCod": null,
        "scope": "L3",
        "isLeafNode": false
    },
    {
        "id": "R80300601",
        "name": "Khulna - Aliapur",
        "nameLocal": "Khulna - Aliapur",
        "parentId": "R3825003",
        "displayName": "Khulna - Aliapur",
        "isSupportDgCod": null,
        "scope": "L3",
        "isLeafNode": false
    },
    {
        "id": "R80300589",
        "name": "Khulna -Amadee",
        "nameLocal": "Khulna -Amadee",
        "parentId": "R3825003",
        "displayName": "Khulna -Amadee",
        "isSupportDgCod": null,
        "scope": "L3",
        "isLeafNode": false
    },
    {
        "id": "R80300593",
        "name": "Khulna - Batiaghat",
        "nameLocal": "Khulna - Batiaghat",
        "parentId": "R3825003",
        "displayName": "Khulna - Batiaghat",
        "isSupportDgCod": null,
        "scope": "L3",
        "isLeafNode": false
    },
    {
        "id": "R80300594",
        "name": "Khulna - Chalna Bazar",
        "nameLocal": "Khulna - Chalna Bazar",
        "parentId": "R3825003",
        "displayName": "Khulna - Chalna Bazar",
        "isSupportDgCod": null,
        "scope": "L3",
        "isLeafNode": false
    },
    {
        "id": "R80300587",
        "name": "Khulna - Digalia",
        "nameLocal": "Khulna - Digalia",
        "parentId": "R3825003",
        "displayName": "Khulna - Digalia",
        "isSupportDgCod": null,
        "scope": "L3",
        "isLeafNode": false
    },
    {
        "id": "R80300595",
        "name": "Khulna - Dumuria",
        "nameLocal": "Khulna - Dumuria",
        "parentId": "R3825003",
        "displayName": "Khulna - Dumuria",
        "isSupportDgCod": null,
        "scope": "L3",
        "isLeafNode": false
    },
    {
        "id": "R80300599",
        "name": "Khulna - Paikgachha",
        "nameLocal": "Khulna - Paikgachha",
        "parentId": "R3825003",
        "displayName": "Khulna - Paikgachha",
        "isSupportDgCod": null,
        "scope": "L3",
        "isLeafNode": false
    },
    {
        "id": "R80300602",
        "name": "Khulna - Terokhada",
        "nameLocal": "Khulna - Terokhada",
        "parentId": "R3825003",
        "displayName": "Khulna - Terokhada",
        "isSupportDgCod": null,
        "scope": "L3",
        "isLeafNode": false
    },
    {
        "id": "R80300596",
        "name": "Khulna - Town",
        "nameLocal": "Khulna - Town",
        "parentId": "R3825003",
        "displayName": "Khulna - Town",
        "isSupportDgCod": null,
        "scope": "L3",
        "isLeafNode": false
    },
    {
        "id": "R80300590",
        "name": "Kushtia",
        "nameLocal": "Kushtia",
        "parentId": "R3825003",
        "displayName": "Kushtia",
        "isSupportDgCod": null,
        "scope": "L3",
        "isLeafNode": false
    },
    {
        "id": "R80300600",
        "name": "Magura",
        "nameLocal": "Magura",
        "parentId": "R3825003",
        "displayName": "Magura",
        "isSupportDgCod": null,
        "scope": "L3",
        "isLeafNode": false
    },
    {
        "id": "R80300591",
        "name": "Meherpur",
        "nameLocal": "Meherpur",
        "parentId": "R3825003",
        "displayName": "Meherpur",
        "isSupportDgCod": null,
        "scope": "L3",
        "isLeafNode": false
    },
    {
        "id": "R80300592",
        "name": "Narail",
        "nameLocal": "Narail",
        "parentId": "R3825003",
        "displayName": "Narail",
        "isSupportDgCod": null,
        "scope": "L3",
        "isLeafNode": false
    },
    {
        "id": "R80300597",
        "name": "Satkhira",
        "nameLocal": "Satkhira",
        "parentId": "R3825003",
        "displayName": "Satkhira",
        "isSupportDgCod": null,
        "scope": "L3",
        "isLeafNode": false
    },
    {
        "id": "R80300611",
        "name": "Jamalpur - Dewangonj",
        "nameLocal": "Jamalpur - Dewangonj",
        "parentId": "R7318343",
        "displayName": "Jamalpur - Dewangonj",
        "isSupportDgCod": null,
        "scope": "L3",
        "isLeafNode": false
    },
    {
        "id": "R80300621",
        "name": "Jamalpur - Islampur",
        "nameLocal": "Jamalpur - Islampur",
        "parentId": "R7318343",
        "displayName": "Jamalpur - Islampur",
        "isSupportDgCod": null,
        "scope": "L3",
        "isLeafNode": false
    },
    {
        "id": "R80300613",
        "name": "Jamalpur - Madarganj",
        "nameLocal": "Jamalpur - Madarganj",
        "parentId": "R7318343",
        "displayName": "Jamalpur - Madarganj",
        "isSupportDgCod": null,
        "scope": "L3",
        "isLeafNode": false
    },
    {
        "id": "R80300605",
        "name": "Jamalpur - Malandah",
        "nameLocal": "Jamalpur - Malandah",
        "parentId": "R7318343",
        "displayName": "Jamalpur - Malandah",
        "isSupportDgCod": null,
        "scope": "L3",
        "isLeafNode": false
    },
    {
        "id": "R80300617",
        "name": "Jamalpur - Shorishbari",
        "nameLocal": "Jamalpur - Shorishbari",
        "parentId": "R7318343",
        "displayName": "Jamalpur - Shorishbari",
        "isSupportDgCod": null,
        "scope": "L3",
        "isLeafNode": false
    },
    {
        "id": "R80300607",
        "name": "Jamalpur - Town",
        "nameLocal": "Jamalpur - Town",
        "parentId": "R7318343",
        "displayName": "Jamalpur - Town",
        "isSupportDgCod": null,
        "scope": "L3",
        "isLeafNode": false
    },
    {
        "id": "R80300619",
        "name": "Mymensingh - Gaforgaon",
        "nameLocal": "Mymensingh - Gaforgaon",
        "parentId": "R7318343",
        "displayName": "Mymensingh - Gaforgaon",
        "isSupportDgCod": null,
        "scope": "L3",
        "isLeafNode": false
    },
    {
        "id": "R80300614",
        "name": "Mymensingh - Gouripur",
        "nameLocal": "Mymensingh - Gouripur",
        "parentId": "R7318343",
        "displayName": "Mymensingh - Gouripur",
        "isSupportDgCod": null,
        "scope": "L3",
        "isLeafNode": false
    },
    {
        "id": "R80300610",
        "name": "Mymensingh - Haluaghat",
        "nameLocal": "Mymensingh - Haluaghat",
        "parentId": "R7318343",
        "displayName": "Mymensingh - Haluaghat",
        "isSupportDgCod": null,
        "scope": "L3",
        "isLeafNode": false
    },
    {
        "id": "R80300609",
        "name": "Mymensingh - Isshwargonj",
        "nameLocal": "Mymensingh - Isshwargonj",
        "parentId": "R7318343",
        "displayName": "Mymensingh - Isshwargonj",
        "isSupportDgCod": null,
        "scope": "L3",
        "isLeafNode": false
    },
    {
        "id": "R80300606",
        "name": "Mymensingh - Muktagacha",
        "nameLocal": "Mymensingh - Muktagacha",
        "parentId": "R7318343",
        "displayName": "Mymensingh - Muktagacha",
        "isSupportDgCod": null,
        "scope": "L3",
        "isLeafNode": false
    },
    {
        "id": "R80300608",
        "name": "Mymensingh - Nandail",
        "nameLocal": "Mymensingh - Nandail",
        "parentId": "R7318343",
        "displayName": "Mymensingh - Nandail",
        "isSupportDgCod": null,
        "scope": "L3",
        "isLeafNode": false
    },
    {
        "id": "R80300612",
        "name": "Mymensingh - Phulpur",
        "nameLocal": "Mymensingh - Phulpur",
        "parentId": "R7318343",
        "displayName": "Mymensingh - Phulpur",
        "isSupportDgCod": null,
        "scope": "L3",
        "isLeafNode": false
    },
    {
        "id": "R80300616",
        "name": "Mymensingh - Town",
        "nameLocal": "Mymensingh - Town",
        "parentId": "R7318343",
        "displayName": "Mymensingh - Town",
        "isSupportDgCod": null,
        "scope": "L3",
        "isLeafNode": false
    },
    {
        "id": "R80300618",
        "name": "Mymensingh - Trishal",
        "nameLocal": "Mymensingh - Trishal",
        "parentId": "R7318343",
        "displayName": "Mymensingh - Trishal",
        "isSupportDgCod": null,
        "scope": "L3",
        "isLeafNode": false
    },
    {
        "id": "R80300620",
        "name": "Netrokona",
        "nameLocal": "Netrokona",
        "parentId": "R7318343",
        "displayName": "Netrokona",
        "isSupportDgCod": null,
        "scope": "L3",
        "isLeafNode": false
    },
    {
        "id": "R80300615",
        "name": "Sherpur",
        "nameLocal": "Sherpur",
        "parentId": "R7318343",
        "displayName": "Sherpur",
        "isSupportDgCod": null,
        "scope": "L3",
        "isLeafNode": false
    },
    {
        "id": "R80300627",
        "name": "Bogura",
        "nameLocal": "Bogura",
        "parentId": "R3859335",
        "displayName": "Bogura",
        "isSupportDgCod": null,
        "scope": "L3",
        "isLeafNode": false
    },
    {
        "id": "R80300622",
        "name": "Chapai Nawabganj",
        "nameLocal": "Chapai Nawabganj",
        "parentId": "R3859335",
        "displayName": "Chapai Nawabganj",
        "isSupportDgCod": null,
        "scope": "L3",
        "isLeafNode": false
    },
    {
        "id": "R80300630",
        "name": "Joypurhat",
        "nameLocal": "Joypurhat",
        "parentId": "R3859335",
        "displayName": "Joypurhat",
        "isSupportDgCod": null,
        "scope": "L3",
        "isLeafNode": false
    },
    {
        "id": "R80300625",
        "name": "Naogaon",
        "nameLocal": "Naogaon",
        "parentId": "R3859335",
        "displayName": "Naogaon",
        "isSupportDgCod": null,
        "scope": "L3",
        "isLeafNode": false
    },
    {
        "id": "R80300626",
        "name": "Natore",
        "nameLocal": "Natore",
        "parentId": "R3859335",
        "displayName": "Natore",
        "isSupportDgCod": null,
        "scope": "L3",
        "isLeafNode": false
    },
    {
        "id": "R80300623",
        "name": "Pabna",
        "nameLocal": "Pabna",
        "parentId": "R3859335",
        "displayName": "Pabna",
        "isSupportDgCod": null,
        "scope": "L3",
        "isLeafNode": false
    },
    {
        "id": "R80300628",
        "name": "Rajshahi",
        "nameLocal": "Rajshahi",
        "parentId": "R3859335",
        "displayName": "Rajshahi",
        "isSupportDgCod": null,
        "scope": "L3",
        "isLeafNode": false
    },
    {
        "id": "R80300629",
        "name": "Sirajganj",
        "nameLocal": "Sirajganj",
        "parentId": "R3859335",
        "displayName": "Sirajganj",
        "isSupportDgCod": null,
        "scope": "L3",
        "isLeafNode": false
    },
    {
        "id": "R80300637",
        "name": "Dinajpur",
        "nameLocal": "Dinajpur",
        "parentId": "R3921211",
        "displayName": "Dinajpur",
        "isSupportDgCod": null,
        "scope": "L3",
        "isLeafNode": false
    },
    {
        "id": "R80300632",
        "name": "Gaibandha",
        "nameLocal": "Gaibandha",
        "parentId": "R3921211",
        "displayName": "Gaibandha",
        "isSupportDgCod": null,
        "scope": "L3",
        "isLeafNode": false
    },
    {
        "id": "R8419493",
        "name": "Kurigram",
        "nameLocal": "Kurigram",
        "parentId": "R3921211",
        "displayName": "Kurigram",
        "isSupportDgCod": null,
        "scope": "L3",
        "isLeafNode": false
    },
    {
        "id": "R80300636",
        "name": "Lalmonirhat",
        "nameLocal": "Lalmonirhat",
        "parentId": "R3921211",
        "displayName": "Lalmonirhat",
        "isSupportDgCod": null,
        "scope": "L3",
        "isLeafNode": false
    },
    {
        "id": "R80300633",
        "name": "Nilphamari",
        "nameLocal": "Nilphamari",
        "parentId": "R3921211",
        "displayName": "Nilphamari",
        "isSupportDgCod": null,
        "scope": "L3",
        "isLeafNode": false
    },
    {
        "id": "R80300635",
        "name": "Nilphamari - Saidpur",
        "nameLocal": "Nilphamari - Saidpur",
        "parentId": "R3921211",
        "displayName": "Nilphamari - Saidpur",
        "isSupportDgCod": null,
        "scope": "L3",
        "isLeafNode": false
    },
    {
        "id": "R80300638",
        "name": "Panchagarh",
        "nameLocal": "Panchagarh",
        "parentId": "R3921211",
        "displayName": "Panchagarh",
        "isSupportDgCod": null,
        "scope": "L3",
        "isLeafNode": false
    },
    {
        "id": "R80300634",
        "name": "Rangpur",
        "nameLocal": "Rangpur",
        "parentId": "R3921211",
        "displayName": "Rangpur",
        "isSupportDgCod": null,
        "scope": "L3",
        "isLeafNode": false
    },
    {
        "id": "R80300631",
        "name": "Thakurgaon",
        "nameLocal": "Thakurgaon",
        "parentId": "R3921211",
        "displayName": "Thakurgaon",
        "isSupportDgCod": null,
        "scope": "L3",
        "isLeafNode": false
    },
    {
        "id": "R80300649",
        "name": "Habiganj",
        "nameLocal": "Habiganj",
        "parentId": "R3921222",
        "displayName": "Habiganj",
        "isSupportDgCod": null,
        "scope": "L3",
        "isLeafNode": false
    },
    {
        "id": "R80300643",
        "name": "Moulvibazar",
        "nameLocal": "Moulvibazar",
        "parentId": "R3921222",
        "displayName": "Moulvibazar",
        "isSupportDgCod": null,
        "scope": "L3",
        "isLeafNode": false
    },
    {
        "id": "R80300650",
        "name": "Sunamganj",
        "nameLocal": "Sunamganj",
        "parentId": "R3921222",
        "displayName": "Sunamganj",
        "isSupportDgCod": null,
        "scope": "L3",
        "isLeafNode": false
    },
    {
        "id": "R80300646",
        "name": "Sylhet - Balaganj",
        "nameLocal": "Sylhet - Balaganj",
        "parentId": "R3921222",
        "displayName": "Sylhet - Balaganj",
        "isSupportDgCod": null,
        "scope": "L3",
        "isLeafNode": false
    },
    {
        "id": "R80300644",
        "name": "Sylhet - Bianibazar",
        "nameLocal": "Sylhet - Bianibazar",
        "parentId": "R3921222",
        "displayName": "Sylhet - Bianibazar",
        "isSupportDgCod": null,
        "scope": "L3",
        "isLeafNode": false
    },
    {
        "id": "R80300645",
        "name": "Sylhet - Bishwanath",
        "nameLocal": "Sylhet - Bishwanath",
        "parentId": "R3921222",
        "displayName": "Sylhet - Bishwanath",
        "isSupportDgCod": null,
        "scope": "L3",
        "isLeafNode": false
    },
    {
        "id": "R80300648",
        "name": "Sylhet - Fenchuganj",
        "nameLocal": "Sylhet - Fenchuganj",
        "parentId": "R3921222",
        "displayName": "Sylhet - Fenchuganj",
        "isSupportDgCod": null,
        "scope": "L3",
        "isLeafNode": false
    },
    {
        "id": "R80300647",
        "name": "Sylhet - Goainhat",
        "nameLocal": "Sylhet - Goainhat",
        "parentId": "R3921222",
        "displayName": "Sylhet - Goainhat",
        "isSupportDgCod": null,
        "scope": "L3",
        "isLeafNode": false
    },
    {
        "id": "R80306260",
        "name": "Sylhet - Golapganj",
        "nameLocal": "Sylhet - Golapganj",
        "parentId": "R3921222",
        "displayName": "Sylhet - Golapganj",
        "isSupportDgCod": null,
        "scope": "L3",
        "isLeafNode": false
    },
    {
        "id": "R80300640",
        "name": "Sylhet - Jakiganj",
        "nameLocal": "Sylhet - Jakiganj",
        "parentId": "R3921222",
        "displayName": "Sylhet - Jakiganj",
        "isSupportDgCod": null,
        "scope": "L3",
        "isLeafNode": false
    },
    {
        "id": "R80300641",
        "name": "Sylhet - Kanaighat",
        "nameLocal": "Sylhet - Kanaighat",
        "parentId": "R3921222",
        "displayName": "Sylhet - Kanaighat",
        "isSupportDgCod": null,
        "scope": "L3",
        "isLeafNode": false
    },
    {
        "id": "R80306262",
        "name": "Sylhet Sadar",
        "nameLocal": "Sylhet Sadar",
        "parentId": "R3921222",
        "displayName": "Sylhet Sadar",
        "isSupportDgCod": null,
        "scope": "L3",
        "isLeafNode": false
    }
]